[{"OBJECT_NAME":"BSAT-4B","OBJECT_ID":"2020-056A","EPOCH":"2026-03-15T00:26:06.458784","MEAN_MOTION":1.00270661,"ECCENTRICITY":0.00021546,"INCLINATION":0.0303,"RA_OF_ASC_NODE":159.5009,"ARG_OF_PERICENTER":284.4522,"MEAN_ANOMALY":205.0275,"EPHEMERIS_TYPE":0,"CLASSIFICATION_TYPE":"U","NORAD_CAT_ID":46112,"ELEMENT_SET_NO":999,"REV_AT_EPOCH":2044,"BSTAR":0,"MEAN_MOTION_DOT":-3.51e-6,"MEAN_MOTION_DDOT":0},{"OBJECT_NAME":"MEV-2","OBJECT_ID":"2020-056B","EPOCH":"2026-03-15T06:45:15.100128","MEAN_MOTION":1.00270868,"ECCENTRICITY":0.00012989,"INCLINATION":0.023,"RA_OF_ASC_NODE":118.5092,"ARG_OF_PERICENTER":292.6884,"MEAN_ANOMALY":222.0093,"EPHEMERIS_TYPE":0,"CLASSIFICATION_TYPE":"U","NORAD_CAT_ID":46113,"ELEMENT_SET_NO":999,"REV_AT_EPOCH":7956,"BSTAR":0,"MEAN_MOTION_DOT":-1.2e-7,"MEAN_MOTION_DDOT":0},{"OBJECT_NAME":"GALAXY 30 (G-30)","OBJECT_ID":"2020-056C","EPOCH":"2026-03-15T06:09:55.986336","MEAN_MOTION":1.00270038,"ECCENTRICITY":0.00020217,"INCLINATION":0.0272,"RA_OF_ASC_NODE":152.7003,"ARG_OF_PERICENTER":214.1508,"MEAN_ANOMALY":133.4993,"EPHEMERIS_TYPE":0,"CLASSIFICATION_TYPE":"U","NORAD_CAT_ID":46114,"ELEMENT_SET_NO":999,"REV_AT_EPOCH":2035,"BSTAR":0,"MEAN_MOTION_DOT":0,"MEAN_MOTION_DDOT":0},{"OBJECT_NAME":"GAOFEN-13 01","OBJECT_ID":"2020-071A","EPOCH":"2026-03-15T07:19:11.843616","MEAN_MOTION":1.00269012,"ECCENTRICITY":0.00428572,"INCLINATION":0.2768,"RA_OF_ASC_NODE":85.5321,"ARG_OF_PERICENTER":119.8058,"MEAN_ANOMALY":195.605,"EPHEMERIS_TYPE":0,"CLASSIFICATION_TYPE":"U","NORAD_CAT_ID":46610,"ELEMENT_SET_NO":999,"REV_AT_EPOCH":1997,"BSTAR":0,"MEAN_MOTION_DOT":-3.63e-6,"MEAN_MOTION_DDOT":0},{"OBJECT_NAME":"TIANTONG-1 2","OBJECT_ID":"2020-082A","EPOCH":"2026-03-12T19:27:02.503296","MEAN_MOTION":1.00267197,"ECCENTRICITY":0.0003405,"INCLINATION":0.9369,"RA_OF_ASC_NODE":315.626,"ARG_OF_PERICENTER":40.2922,"MEAN_ANOMALY":231.181,"EPHEMERIS_TYPE":0,"CLASSIFICATION_TYPE":"U","NORAD_CAT_ID":46916,"ELEMENT_SET_NO":999,"REV_AT_EPOCH":1968,"BSTAR":0,"MEAN_MOTION_DOT":-3.56e-6,"MEAN_MOTION_DDOT":0},{"OBJECT_NAME":"LUCAS (JDRS-1)","OBJECT_ID":"2020-089A","EPOCH":"2026-03-14T17:32:38.661792","MEAN_MOTION":1.00269765,"ECCENTRICITY":0.00030373,"INCLINATION":0.0698,"RA_OF_ASC_NODE":272.6224,"ARG_OF_PERICENTER":83.2338,"MEAN_ANOMALY":170.3968,"EPHEMERIS_TYPE":0,"CLASSIFICATION_TYPE":"U","NORAD_CAT_ID":47202,"ELEMENT_SET_NO":999,"REV_AT_EPOCH":1947,"BSTAR":0,"MEAN_MOTION_DOT":-2.36e-6,"MEAN_MOTION_DDOT":0},{"OBJECT_NAME":"SXM-7","OBJECT_ID":"2020-096A","EPOCH":"2026-03-13T04:43:14.041056","MEAN_MOTION":1.00271702,"ECCENTRICITY":0.0004635,"INCLINATION":0.0201,"RA_OF_ASC_NODE":121.6444,"ARG_OF_PERICENTER":5.6913,"MEAN_ANOMALY":29.1302,"EPHEMERIS_TYPE":0,"CLASSIFICATION_TYPE":"U","NORAD_CAT_ID":47240,"ELEMENT_SET_NO":999,"REV_AT_EPOCH":648,"BSTAR":0,"MEAN_MOTION_DOT":-2.05e-6,"MEAN_MOTION_DDOT":0},{"OBJECT_NAME":"CMS-01","OBJECT_ID":"2020-099A","EPOCH":"2026-03-15T02:01:04.850688","MEAN_MOTION":1.00270806,"ECCENTRICITY":0.00057616,"INCLINATION":0.0437,"RA_OF_ASC_NODE":106.7764,"ARG_OF_PERICENTER":185.0467,"MEAN_ANOMALY":354.1137,"EPHEMERIS_TYPE":0,"CLASSIFICATION_TYPE":"U","NORAD_CAT_ID":47256,"ELEMENT_SET_NO":999,"REV_AT_EPOCH":1925,"BSTAR":0,"MEAN_MOTION_DOT":-1.65e-6,"MEAN_MOTION_DDOT":0},{"OBJECT_NAME":"TURKSAT 5A","OBJECT_ID":"2021-001A","EPOCH":"2026-03-12T07:01:25.125024","MEAN_MOTION":1.00273019,"ECCENTRICITY":3.21e-5,"INCLINATION":0.0184,"RA_OF_ASC_NODE":105.0454,"ARG_OF_PERICENTER":350.9311,"MEAN_ANOMALY":210.2194,"EPHEMERIS_TYPE":0,"CLASSIFICATION_TYPE":"U","NORAD_CAT_ID":47306,"ELEMENT_SET_NO":999,"REV_AT_EPOCH":1899,"BSTAR":0,"MEAN_MOTION_DOT":1.55e-6,"MEAN_MOTION_DDOT":0},{"OBJECT_NAME":"TIANTONG-1 3","OBJECT_ID":"2021-003A","EPOCH":"2026-03-14T19:21:27.802656","MEAN_MOTION":1.0027358,"ECCENTRICITY":0.00032743,"INCLINATION":1.8424,"RA_OF_ASC_NODE":333.6665,"ARG_OF_PERICENTER":23.6227,"MEAN_ANOMALY":187.0252,"EPHEMERIS_TYPE":0,"CLASSIFICATION_TYPE":"U","NORAD_CAT_ID":47321,"ELEMENT_SET_NO":999,"REV_AT_EPOCH":1901,"BSTAR":0,"MEAN_MOTION_DOT":-1.55e-6,"MEAN_MOTION_DDOT":0},{"OBJECT_NAME":"TJS-6","OBJECT_ID":"2021-010A","EPOCH":"2026-03-15T05:53:42.541728","MEAN_MOTION":1.00274323,"ECCENTRICITY":0.00036093,"INCLINATION":0.3558,"RA_OF_ASC_NODE":90.2452,"ARG_OF_PERICENTER":296.0005,"MEAN_ANOMALY":53.5406,"EPHEMERIS_TYPE":0,"CLASSIFICATION_TYPE":"U","NORAD_CAT_ID":47613,"ELEMENT_SET_NO":999,"REV_AT_EPOCH":1886,"BSTAR":0,"MEAN_MOTION_DOT":4.3e-7,"MEAN_MOTION_DDOT":0},{"OBJECT_NAME":"SHIYAN-9 (SY-9)","OBJECT_ID":"2021-019A","EPOCH":"2026-03-10T14:59:28.108032","MEAN_MOTION":1.00277331,"ECCENTRICITY":0.00152777,"INCLINATION":16.7428,"RA_OF_ASC_NODE":303.712,"ARG_OF_PERICENTER":26.8901,"MEAN_ANOMALY":209.4182,"EPHEMERIS_TYPE":0,"CLASSIFICATION_TYPE":"U","NORAD_CAT_ID":47851,"ELEMENT_SET_NO":999,"REV_AT_EPOCH":2314,"BSTAR":0,"MEAN_MOTION_DOT":-2.22e-6,"MEAN_MOTION_DDOT":0},{"OBJECT_NAME":"SBIRS GEO-5 (USA 315)","OBJECT_ID":"2021-042A","EPOCH":"2026-03-15T02:04:12.051840","MEAN_MOTION":1.00271792,"ECCENTRICITY":0.00011849,"INCLINATION":5.2242,"RA_OF_ASC_NODE":328.3995,"ARG_OF_PERICENTER":28.1719,"MEAN_ANOMALY":300.9529,"EPHEMERIS_TYPE":0,"CLASSIFICATION_TYPE":"U","NORAD_CAT_ID":48618,"ELEMENT_SET_NO":999,"REV_AT_EPOCH":1782,"BSTAR":0,"MEAN_MOTION_DOT":-2.68e-6,"MEAN_MOTION_DDOT":0},{"OBJECT_NAME":"FENGYUN 4B","OBJECT_ID":"2021-047A","EPOCH":"2026-03-15T07:15:19.716192","MEAN_MOTION":1.00273197,"ECCENTRICITY":0.0008013,"INCLINATION":0.2182,"RA_OF_ASC_NODE":77.6233,"ARG_OF_PERICENTER":296.4304,"MEAN_ANOMALY":12.3492,"EPHEMERIS_TYPE":0,"CLASSIFICATION_TYPE":"U","NORAD_CAT_ID":48808,"ELEMENT_SET_NO":999,"REV_AT_EPOCH":1762,"BSTAR":0,"MEAN_MOTION_DOT":-3.31e-6,"MEAN_MOTION_DDOT":0},{"OBJECT_NAME":"SXM-8","OBJECT_ID":"2021-049A","EPOCH":"2026-03-13T09:35:37.335552","MEAN_MOTION":1.00270921,"ECCENTRICITY":0.00046105,"INCLINATION":0.0324,"RA_OF_ASC_NODE":51.3663,"ARG_OF_PERICENTER":356.5126,"MEAN_ANOMALY":181.8973,"EPHEMERIS_TYPE":0,"CLASSIFICATION_TYPE":"U","NORAD_CAT_ID":48838,"ELEMENT_SET_NO":999,"REV_AT_EPOCH":1763,"BSTAR":0,"MEAN_MOTION_DOT":-2.05e-6,"MEAN_MOTION_DDOT":0},{"OBJECT_NAME":"TIANLIAN 1-05","OBJECT_ID":"2021-063A","EPOCH":"2026-03-15T05:07:31.971072","MEAN_MOTION":1.00273063,"ECCENTRICITY":0.00040577,"INCLINATION":1.3496,"RA_OF_ASC_NODE":81.4677,"ARG_OF_PERICENTER":236.3597,"MEAN_ANOMALY":308.6169,"EPHEMERIS_TYPE":0,"CLASSIFICATION_TYPE":"U","NORAD_CAT_ID":49011,"ELEMENT_SET_NO":999,"REV_AT_EPOCH":1713,"BSTAR":0,"MEAN_MOTION_DOT":1.08e-6,"MEAN_MOTION_DDOT":0},{"OBJECT_NAME":"STAR ONE D2","OBJECT_ID":"2021-069A","EPOCH":"2026-03-14T18:26:29.474016","MEAN_MOTION":1.00268551,"ECCENTRICITY":7.762e-5,"INCLINATION":0.027,"RA_OF_ASC_NODE":155.5679,"ARG_OF_PERICENTER":189.7833,"MEAN_ANOMALY":33.5729,"EPHEMERIS_TYPE":0,"CLASSIFICATION_TYPE":"U","NORAD_CAT_ID":49055,"ELEMENT_SET_NO":999,"REV_AT_EPOCH":1698,"BSTAR":0,"MEAN_MOTION_DOT":0,"MEAN_MOTION_DDOT":0}]
