BSAT-4B                 
1 46112U 20056A   26074.01813031 -.00000351  00000+0  00000+0 0  9991
2 46112   0.0303 159.5009 0002154 284.4522 205.0275  1.00270661 20444
MEV-2                   
1 46113U 20056B   26074.28142477 -.00000012  00000+0  00000+0 0  9994
2 46113   0.0230 118.5092 0001298 292.6884 222.0093  1.00270868 79564
GALAXY 30 (G-30)        
1 46114U 20056C   26074.25689799  .00000000  00000+0  00000+0 0  9991
2 46114   0.0272 152.7003 0002021 214.1508 133.4993  1.00270038 20356
GAOFEN-13 01            
1 46610U 20071A   26074.30499819 -.00000363  00000+0  00000+0 0  9990
2 46610   0.2768  85.5321 0042857 119.8058 195.6050  1.00269012 19977
TIANTONG-1 2            
1 46916U 20082A   26071.81044564 -.00000356  00000+0  00000+0 0  9999
2 46916   0.9369 315.6260 0003405  40.2922 231.1810  1.00267197 19682
LUCAS (JDRS-1)          
1 47202U 20089A   26073.73100303 -.00000236  00000+0  00000+0 0  9999
2 47202   0.0698 272.6224 0003037  83.2338 170.3968  1.00269765 19476
SXM-7                   
1 47240U 20096A   26072.19669029 -.00000205  00000+0  00000+0 0  9999
2 47240   0.0201 121.6444 0004635   5.6913  29.1302  1.00271702  6481
CMS-01                  
1 47256U 20099A   26074.08408392 -.00000165  00000+0  00000+0 0  9998
2 47256   0.0437 106.7764 0005761 185.0467 354.1137  1.00270806 19256
TURKSAT 5A              
1 47306U 21001A   26071.29265191  .00000155  00000+0  00000+0 0  9994
2 47306   0.0184 105.0454 0000321 350.9311 210.2194  1.00273019 18991
TIANTONG-1 3            
1 47321U 21003A   26073.80657179 -.00000155  00000+0  00000+0 0  9994
2 47321   1.8424 333.6665 0003274  23.6227 187.0252  1.00273580 19010
TJS-6                   
1 47613U 21010A   26074.24563127  .00000043  00000+0  00000+0 0  9999
2 47613   0.3558  90.2452 0003609 296.0005  53.5406  1.00274323 18864
SHIYAN-9 (SY-9)         
1 47851U 21019A   26069.62463088 -.00000222  00000+0  00000+0 0  9993
2 47851  16.7428 303.7120 0015277  26.8901 209.4182  1.00277331 23149
SBIRS GEO-5 (USA 315)   
1 48618U 21042A   26074.08625060 -.00000268  00000+0  00000+0 0  9997
2 48618   5.2242 328.3995 0001184  28.1719 300.9529  1.00271792 17820
FENGYUN 4B              
1 48808U 21047A   26074.30231153 -.00000331  00000+0  00000+0 0  9995
2 48808   0.2182  77.6233 0008013 296.4304  12.3492  1.00273197 17628
SXM-8                   
1 48838U 21049A   26072.39973768 -.00000205  00000+0  00000+0 0  9992
2 48838   0.0324  51.3663 0004610 356.5126 181.8973  1.00270921 17631
TIANLIAN 1-05           
1 49011U 21063A   26074.21356448  .00000108  00000+0  00000+0 0  9996
2 49011   1.3496  81.4677 0004057 236.3597 308.6169  1.00273063 17131
STAR ONE D2             
1 49055U 21069A   26073.76839669  .00000000  00000+0  00000+0 0  9991
2 49055   0.0270 155.5679 0000776 189.7833  33.5729  1.00268551 16982
